OBJECT_NAME,OBJECT_ID,EPOCH,MEAN_MOTION,ECCENTRICITY,INCLINATION,RA_OF_ASC_NODE,ARG_OF_PERICENTER,MEAN_ANOMALY,EPHEMERIS_TYPE,CLASSIFICATION_TYPE,NORAD_CAT_ID,ELEMENT_SET_NO,REV_AT_EPOCH,BSTAR,MEAN_MOTION_DOT,MEAN_MOTION_DDOT
ORBCOMM FM06,1997-084G,2026-07-07T08:34:02.100864,14.47614828,.00008893,45.0145,315.6112,206.2304,182.4550,0,U,25118,999,49731,.32734351E-3,.1072E-4,0
ORBCOMM FM04,1998-007C,2026-07-07T22:45:09.322848,14.35776194,.0041848,107.9631,212.1494,289.2268,70.4347,0,U,25159,999,47957,.21999E-3,.51E-5,0
ORBCOMM FM19,1998-046C,2026-07-07T07:04:07.622688,14.39530708,.0003652,44.9923,147.9797,13.9230,137.6022,0,U,25415,999,45967,.30764049E-3,.826E-5,0
ORBCOMM FM20,1998-046D,2026-07-05T00:08:08.910816,14.38089487,.000221,44.9918,166.9799,311.3972,48.6686,0,U,25416,999,45935,.32377E-3,.848E-5,0
ORBCOMM FM27,1998-053G,2026-07-08T03:38:20.615136,14.39177433,.0002401,45.0039,235.7774,266.8320,93.2254,0,U,25481,999,45325,.19969E-3,.481E-5,0
ORBCOMM FM32,1999-065C,2026-07-08T01:48:37.684224,14.37161191,.0005016,45.0155,74.3653,156.4596,203.6483,0,U,25982,999,39009,.20829E-3,.483E-5,0
ORBCOMM FM109,2014-040A,2026-07-07T10:32:05.843328,14.58867123,.00017707,47.0043,355.7372,299.6158,60.4551,0,U,40086,999,63730,.10363777E-3,.319E-5,0
ORBCOMM FM110,2015-081D,2026-07-07T10:39:22.312800,14.58911772,.00031996,47.0017,265.6622,188.6798,171.4033,0,U,41182,999,56058,.13341183E-3,.46E-5,0
ORBCOMM FM118,2015-081E,2026-07-07T14:46:04.885248,14.58899791,.0002514,47.0035,265.1877,148.2378,211.8660,0,U,41183,999,56071,.91045E-4,.259E-5,0
ORBCOMM FM112,2015-081F,2026-07-08T00:43:46.941024,14.58930229,.0004031,46.9972,171.6820,299.1242,60.9240,0,U,41184,999,56199,.13508E-3,.468E-5,0
ORBCOMM FM113,2015-081G,2026-07-08T00:11:07.986048,14.58876786,.0002536,46.9991,172.1761,295.4275,64.6348,0,U,41185,999,56197,.84853E-4,.23E-5,0
ORBCOMM FM108,2015-081J,2026-07-08T02:33:50.175072,14.58902656,.0002979,47.0052,83.2874,296.6669,63.3912,0,U,41187,999,56313,.13031E-3,.445E-5,0
ORBCOMM FM117,2015-081K,2026-07-08T01:44:24.310176,14.58889920,.0003434,47.0014,82.0783,302.2374,57.8178,0,U,41188,999,56317,.12376E-3,.414E-5,0
ORBCOMM FM116,2015-081L,2026-07-07T08:49:41.665440,14.58900876,.00012651,47.0006,175.1992,207.4627,152.6192,0,U,41189,999,56188,.71163779E-4,.166E-5,0
