ORBCOMM FM06            
1 25118U 97084G   26188.35696876  .00001072  00000+0  32734-3 0  9991
2 25118  45.0145 315.6112 0000889 206.2304 182.4550 14.47614828497313
ORBCOMM FM04            
1 25159U 98007C   26188.94802457  .00000510  00000+0  21999-3 0  9998
2 25159 107.9631 212.1494 0041848 289.2268  70.4347 14.35776194479570
ORBCOMM FM19            
1 25415U 98046C   26188.29453267  .00000826  00000+0  30764-3 0  9995
2 25415  44.9923 147.9797 0003652  13.9230 137.6022 14.39530708459670
ORBCOMM FM20            
1 25416U 98046D   26186.00565869  .00000848  00000+0  32377-3 0  9991
2 25416  44.9918 166.9799 0002210 311.3972  48.6686 14.38089487459359
ORBCOMM FM27            
1 25481U 98053G   26189.15162749  .00000481  00000+0  19969-3 0  9995
2 25481  45.0039 235.7774 0002401 266.8320  93.2254 14.39177433453258
ORBCOMM FM32            
1 25982U 99065C   26189.07543616  .00000483  00000+0  20829-3 0  9991
2 25982  45.0155  74.3653 0005016 156.4596 203.6483 14.37161191390095
ORBCOMM FM109           
1 40086U 14040A   26188.43895652  .00000319  00000+0  10364-3 0  9993
2 40086  47.0043 355.7372 0001770 299.6158  60.4551 14.58867123637300
ORBCOMM FM110           
1 41182U 15081D   26188.44400825  .00000460  00000+0  13341-3 0  9997
2 41182  47.0017 265.6622 0003199 188.6798 171.4033 14.58911772560583
ORBCOMM FM118           
1 41183U 15081E   26188.61533432  .00000259  00000+0  91045-4 0  9992
2 41183  47.0035 265.1877 0002514 148.2378 211.8660 14.58899791560713
ORBCOMM FM112           
1 41184U 15081F   26189.03040441  .00000468  00000+0  13508-3 0  9992
2 41184  46.9972 171.6820 0004031 299.1242  60.9240 14.58930229561993
ORBCOMM FM113           
1 41185U 15081G   26189.00773132  .00000230  00000+0  84853-4 0  9999
2 41185  46.9991 172.1761 0002536 295.4275  64.6348 14.58876786561973
ORBCOMM FM108           
1 41187U 15081J   26189.10683073  .00000445  00000+0  13031-3 0  9993
2 41187  47.0052  83.2874 0002979 296.6669  63.3912 14.58902656563132
ORBCOMM FM117           
1 41188U 15081K   26189.07250359  .00000414  00000+0  12376-3 0  9994
2 41188  47.0014  82.0783 0003434 302.2374  57.8178 14.58889920563175
ORBCOMM FM116           
1 41189U 15081L   26188.36784335  .00000166  00000+0  71164-4 0  9997
2 41189  47.0006 175.1992 0001265 207.4627 152.6192 14.58900876561880
